ITASAT                  
1 43786U 18099AE  26073.58744915  .00009925  00000+0  49362-3 0  9997
2 43786  97.4161 127.0167 0011748 328.3634  31.6892 15.17766406398554
EAGLET-I                
1 43790U 18099AJ  26073.38508821  .00004680  00000+0  27479-3 0  9992
2 43790  97.4364 125.5584 0010022 319.6174  40.4312 15.12158630398000
ESEO                    
1 43792U 18099AL  26073.57884052  .00002368  00000+0  17571-3 0  9991
2 43792  97.4112 114.9792 0010412 300.0657  59.9536 15.03940328397587
THEA                    
1 43796U 18099AQ  26073.18642447  .00022717  00000+0  74434-3 0  9993
2 43796  97.4539 142.1526 0006656 257.4650 102.5847 15.31637897398132
ASTROCAST 0.1           
1 43798U 18099AS  26073.14272474  .00037619  00000+0  84267-3 0  9992
2 43798  97.4458 149.0993 0005896 193.2028 166.9066 15.43332973399744
JY1SAT (JO-97)          
1 43803U 18099AX  26073.59016575  .00024744  00000+0  83935-3 0  9992
2 43803  97.4249 136.2668 0004997 235.6318 124.4451 15.30507754399148
SUOMI-100               
1 43804U 18099AY  26073.60044371  .00018520  00000+0  71797-3 0  9998
2 43804  97.4311 134.4503 0009101 249.7924 110.2335 15.26150841398989
AL-FARABI 2             
1 43805U 18099AZ  26073.46294645  .00189099  00000+0  15566-2 0  9995
2 43805  97.4082 149.5740 0004545 206.1225 153.9809 15.69799820400104
CENTAURI-1              
1 43809U 18099BD  26073.61204518  .00008425  00000+0  44957-3 0  9996
2 43809  97.4354 127.3750 0012850 299.1828  60.8118 15.15322484398175
GLOBAL-2                
1 43812U 18099BG  26073.60960997  .00004021  00000+0  26454-3 0  9999
2 43812  97.3684 114.0371 0007511 114.8707 245.3304 15.08083808397658
SEAHAWK-1               
1 43820U 18099BQ  26073.59468591  .00013610  00000+0  61341-3 0  9997
2 43820  97.4091 127.5782 0006849 281.2566  78.7899 15.21138192398144
SAUDISAT 5A             
1 43831U 18102A   26073.63883189  .00008400  00000+0  31898-3 0  9998
2 43831  97.3184 137.0609 0011516 107.5652 252.6846 15.27010816401244
SAUDISAT 5B             
1 43833U 18102C   26073.60962112  .00008018  00000+0  30174-3 0  9992
2 43833  97.3281 139.9328 0012221 109.7271 250.5288 15.27315765401358
2018-102D               
1 43834U 18102D   26073.63506389  .00062668  00000+0  87596-3 0  9997
2 43834  97.3479 159.2989 0004905  61.6668 298.5082 15.56630946402495
ISAT                    
1 43879U 18111D   26073.04524446  .00068465  00000+0  11438-2 0  9997
2 43879  97.5899   2.0328 0002078 300.6441  59.4606 15.51696922396352
UWE-4                   
1 43880U 18111E   26073.02812134  .00036111  00000+0  89456-3 0  9990
2 43880  97.5847 357.4738 0006671 322.1188  37.9587 15.40303245396102
