[{"OBJECT_NAME":"ITASAT","OBJECT_ID":"2018-099AE","EPOCH":"2026-03-14T14:05:55.606560","MEAN_MOTION":15.17766406,"ECCENTRICITY":0.0011748,"INCLINATION":97.4161,"RA_OF_ASC_NODE":127.0167,"ARG_OF_PERICENTER":328.3634,"MEAN_ANOMALY":31.6892,"EPHEMERIS_TYPE":0,"CLASSIFICATION_TYPE":"U","NORAD_CAT_ID":43786,"ELEMENT_SET_NO":999,"REV_AT_EPOCH":39855,"BSTAR":0.00049362225,"MEAN_MOTION_DOT":9.925e-5,"MEAN_MOTION_DDOT":0},{"OBJECT_NAME":"EAGLET-I","OBJECT_ID":"2018-099AJ","EPOCH":"2026-03-14T09:14:31.621344","MEAN_MOTION":15.1215863,"ECCENTRICITY":0.00100228,"INCLINATION":97.4364,"RA_OF_ASC_NODE":125.5584,"ARG_OF_PERICENTER":319.6174,"MEAN_ANOMALY":40.4312,"EPHEMERIS_TYPE":0,"CLASSIFICATION_TYPE":"U","NORAD_CAT_ID":43790,"ELEMENT_SET_NO":999,"REV_AT_EPOCH":39800,"BSTAR":0.00027478847,"MEAN_MOTION_DOT":4.68e-5,"MEAN_MOTION_DDOT":0},{"OBJECT_NAME":"ESEO","OBJECT_ID":"2018-099AL","EPOCH":"2026-03-14T13:53:31.820928","MEAN_MOTION":15.03940328,"ECCENTRICITY":0.00104129,"INCLINATION":97.4112,"RA_OF_ASC_NODE":114.9792,"ARG_OF_PERICENTER":300.0657,"MEAN_ANOMALY":59.9536,"EPHEMERIS_TYPE":0,"CLASSIFICATION_TYPE":"U","NORAD_CAT_ID":43792,"ELEMENT_SET_NO":999,"REV_AT_EPOCH":39758,"BSTAR":0.00017570809,"MEAN_MOTION_DOT":2.368e-5,"MEAN_MOTION_DDOT":0},{"OBJECT_NAME":"THEA","OBJECT_ID":"2018-099AQ","EPOCH":"2026-03-14T04:28:27.074208","MEAN_MOTION":15.31637897,"ECCENTRICITY":0.0006656,"INCLINATION":97.4539,"RA_OF_ASC_NODE":142.1526,"ARG_OF_PERICENTER":257.465,"MEAN_ANOMALY":102.5847,"EPHEMERIS_TYPE":0,"CLASSIFICATION_TYPE":"U","NORAD_CAT_ID":43796,"ELEMENT_SET_NO":999,"REV_AT_EPOCH":39813,"BSTAR":0.00074433723,"MEAN_MOTION_DOT":0.00022717,"MEAN_MOTION_DDOT":0},{"OBJECT_NAME":"ASTROCAST 0.1","OBJECT_ID":"2018-099AS","EPOCH":"2026-03-14T03:25:31.417536","MEAN_MOTION":15.43332973,"ECCENTRICITY":0.00058962,"INCLINATION":97.4458,"RA_OF_ASC_NODE":149.0993,"ARG_OF_PERICENTER":193.2028,"MEAN_ANOMALY":166.9066,"EPHEMERIS_TYPE":0,"CLASSIFICATION_TYPE":"U","NORAD_CAT_ID":43798,"ELEMENT_SET_NO":999,"REV_AT_EPOCH":39974,"BSTAR":0.00084266907,"MEAN_MOTION_DOT":0.00037619,"MEAN_MOTION_DDOT":0},{"OBJECT_NAME":"JY1SAT (JO-97)","OBJECT_ID":"2018-099AX","EPOCH":"2026-03-14T14:09:50.320800","MEAN_MOTION":15.30507754,"ECCENTRICITY":0.00049972,"INCLINATION":97.4249,"RA_OF_ASC_NODE":136.2668,"ARG_OF_PERICENTER":235.6318,"MEAN_ANOMALY":124.4451,"EPHEMERIS_TYPE":0,"CLASSIFICATION_TYPE":"U","NORAD_CAT_ID":43803,"ELEMENT_SET_NO":999,"REV_AT_EPOCH":39914,"BSTAR":0.00083934905,"MEAN_MOTION_DOT":0.00024744,"MEAN_MOTION_DDOT":0},{"OBJECT_NAME":"SUOMI-100","OBJECT_ID":"2018-099AY","EPOCH":"2026-03-14T14:24:38.336544","MEAN_MOTION":15.26150841,"ECCENTRICITY":0.00091018,"INCLINATION":97.4311,"RA_OF_ASC_NODE":134.4503,"ARG_OF_PERICENTER":249.7924,"MEAN_ANOMALY":110.2335,"EPHEMERIS_TYPE":0,"CLASSIFICATION_TYPE":"U","NORAD_CAT_ID":43804,"ELEMENT_SET_NO":999,"REV_AT_EPOCH":39898,"BSTAR":0.0007179681,"MEAN_MOTION_DOT":0.0001852,"MEAN_MOTION_DDOT":0},{"OBJECT_NAME":"AL-FARABI 2","OBJECT_ID":"2018-099AZ","EPOCH":"2026-03-14T11:06:38.573280","MEAN_MOTION":15.6979982,"ECCENTRICITY":0.00045451,"INCLINATION":97.4082,"RA_OF_ASC_NODE":149.574,"ARG_OF_PERICENTER":206.1225,"MEAN_ANOMALY":153.9809,"EPHEMERIS_TYPE":0,"CLASSIFICATION_TYPE":"U","NORAD_CAT_ID":43805,"ELEMENT_SET_NO":999,"REV_AT_EPOCH":40010,"BSTAR":0.0015566461,"MEAN_MOTION_DOT":0.00189099,"MEAN_MOTION_DDOT":0},{"OBJECT_NAME":"CENTAURI-1","OBJECT_ID":"2018-099BD","EPOCH":"2026-03-14T14:41:20.703552","MEAN_MOTION":15.15322484,"ECCENTRICITY":0.00128508,"INCLINATION":97.4354,"RA_OF_ASC_NODE":127.375,"ARG_OF_PERICENTER":299.1828,"MEAN_ANOMALY":60.8118,"EPHEMERIS_TYPE":0,"CLASSIFICATION_TYPE":"U","NORAD_CAT_ID":43809,"ELEMENT_SET_NO":999,"REV_AT_EPOCH":39817,"BSTAR":0.00044957219,"MEAN_MOTION_DOT":8.425e-5,"MEAN_MOTION_DDOT":0},{"OBJECT_NAME":"GLOBAL-2","OBJECT_ID":"2018-099BG","EPOCH":"2026-03-14T14:37:50.301408","MEAN_MOTION":15.08083808,"ECCENTRICITY":0.00075112,"INCLINATION":97.3684,"RA_OF_ASC_NODE":114.0371,"ARG_OF_PERICENTER":114.8707,"MEAN_ANOMALY":245.3304,"EPHEMERIS_TYPE":0,"CLASSIFICATION_TYPE":"U","NORAD_CAT_ID":43812,"ELEMENT_SET_NO":999,"REV_AT_EPOCH":39765,"BSTAR":0.00026454245,"MEAN_MOTION_DOT":4.021e-5,"MEAN_MOTION_DDOT":0},{"OBJECT_NAME":"SEAHAWK-1","OBJECT_ID":"2018-099BQ","EPOCH":"2026-03-14T14:16:20.862624","MEAN_MOTION":15.21138192,"ECCENTRICITY":0.00068497,"INCLINATION":97.4091,"RA_OF_ASC_NODE":127.5782,"ARG_OF_PERICENTER":281.2566,"MEAN_ANOMALY":78.7899,"EPHEMERIS_TYPE":0,"CLASSIFICATION_TYPE":"U","NORAD_CAT_ID":43820,"ELEMENT_SET_NO":999,"REV_AT_EPOCH":39814,"BSTAR":0.00061341271,"MEAN_MOTION_DOT":0.0001361,"MEAN_MOTION_DDOT":0},{"OBJECT_NAME":"SAUDISAT 5A","OBJECT_ID":"2018-102A","EPOCH":"2026-03-14T15:19:55.075296","MEAN_MOTION":15.27010816,"ECCENTRICITY":0.00115167,"INCLINATION":97.3184,"RA_OF_ASC_NODE":137.0609,"ARG_OF_PERICENTER":107.5652,"MEAN_ANOMALY":252.6846,"EPHEMERIS_TYPE":0,"CLASSIFICATION_TYPE":"U","NORAD_CAT_ID":43831,"ELEMENT_SET_NO":999,"REV_AT_EPOCH":40124,"BSTAR":0.00031897614,"MEAN_MOTION_DOT":8.4e-5,"MEAN_MOTION_DDOT":0},{"OBJECT_NAME":"SAUDISAT 5B","OBJECT_ID":"2018-102C","EPOCH":"2026-03-14T14:37:51.264768","MEAN_MOTION":15.27315765,"ECCENTRICITY":0.0012221,"INCLINATION":97.3281,"RA_OF_ASC_NODE":139.9328,"ARG_OF_PERICENTER":109.7271,"MEAN_ANOMALY":250.5288,"EPHEMERIS_TYPE":0,"CLASSIFICATION_TYPE":"U","NORAD_CAT_ID":43833,"ELEMENT_SET_NO":999,"REV_AT_EPOCH":40135,"BSTAR":0.00030173814,"MEAN_MOTION_DOT":8.018e-5,"MEAN_MOTION_DDOT":0},{"OBJECT_NAME":"2018-102D","OBJECT_ID":"2018-102D","EPOCH":"2026-03-14T15:14:29.520096","MEAN_MOTION":15.56630946,"ECCENTRICITY":0.00049058,"INCLINATION":97.3479,"RA_OF_ASC_NODE":159.2989,"ARG_OF_PERICENTER":61.6668,"MEAN_ANOMALY":298.5082,"EPHEMERIS_TYPE":0,"CLASSIFICATION_TYPE":"U","NORAD_CAT_ID":43834,"ELEMENT_SET_NO":999,"REV_AT_EPOCH":40249,"BSTAR":0.00087595951,"MEAN_MOTION_DOT":0.00062668,"MEAN_MOTION_DDOT":0},{"OBJECT_NAME":"ISAT","OBJECT_ID":"2018-111D","EPOCH":"2026-03-14T01:05:09.121344","MEAN_MOTION":15.51696922,"ECCENTRICITY":0.00020782,"INCLINATION":97.5899,"RA_OF_ASC_NODE":2.0328,"ARG_OF_PERICENTER":300.6441,"MEAN_ANOMALY":59.4606,"EPHEMERIS_TYPE":0,"CLASSIFICATION_TYPE":"U","NORAD_CAT_ID":43879,"ELEMENT_SET_NO":999,"REV_AT_EPOCH":39635,"BSTAR":0.0011438356,"MEAN_MOTION_DOT":0.00068465,"MEAN_MOTION_DDOT":0},{"OBJECT_NAME":"UWE-4","OBJECT_ID":"2018-111E","EPOCH":"2026-03-14T00:40:29.683776","MEAN_MOTION":15.40303245,"ECCENTRICITY":0.00066717,"INCLINATION":97.5847,"RA_OF_ASC_NODE":357.4738,"ARG_OF_PERICENTER":322.1188,"MEAN_ANOMALY":37.9587,"EPHEMERIS_TYPE":0,"CLASSIFICATION_TYPE":"U","NORAD_CAT_ID":43880,"ELEMENT_SET_NO":999,"REV_AT_EPOCH":39610,"BSTAR":0.00089456289,"MEAN_MOTION_DOT":0.00036111,"MEAN_MOTION_DDOT":0}]
